#cP2010  1  7  0  0  0.00000000      96 ORBIT IGS05 HLM  IGS
## 1565 345600.00000000   900.00000000 55203 0.0000000000000
+   32   G01G02G03G04G05G06G07G08G09G10G11G12G13G14G15G16G17
+        G18G19G20G21G22G23G24G25G26G27G28G29G30G31G32  0  0
+          0  0  0  0  0  0  0  0  0  0  0  0  0  0  0  0  0
+          0  0  0  0  0  0  0  0  0  0  0  0  0  0  0  0  0
+          0  0  0  0  0  0  0  0  0  0  0  0  0  0  0  0  0
++         3  2  2  2  2  2  2  2  2  2  2  2  2  2  2  2  2
++         2  2  2  2  2  2  2  3  2  2  2  2  3  2  2  0  0
++         0  0  0  0  0  0  0  0  0  0  0  0  0  0  0  0  0
++         0  0  0  0  0  0  0  0  0  0  0  0  0  0  0  0  0
++         0  0  0  0  0  0  0  0  0  0  0  0  0  0  0  0  0
%c G  cc GPS ccc cccc cccc cccc cccc ccccc ccccc ccccc ccccc
%c cc cc ccc ccc cccc cccc cccc cccc ccccc ccccc ccccc ccccc
%f  1.2500000  1.025000000  0.00000000000  0.000000000000000
%f  0.0000000  0.000000000  0.00000000000  0.000000000000000
%i    0    0    0    0      0      0      0      0         0
%i    0    0    0    0      0      0      0      0         0
/* FINAL ORBIT COMBINATION FROM WEIGHTED AVERAGE OF:        
/* cod emr esa gfz grg jpl mit ngs sio                      
/* REFERENCED TO IGS TIME (IGST) AND TO WEIGHTED MEAN POLE: 
/* PCV:IGS05_1563 OL/AL:FES2004  NONE     Y  ORB:CMB CLK:CMB
*  2010  1  7  3 45  0.00000000
PG01  16348.402839  -7727.966606  19315.485025    -77.368621 10 10  7  94       
PG02  11615.991853  22153.936644   9491.751311    212.604614  7  8  6 107       
PG03  -8902.059680 -13776.297509 -21275.525119    498.459156  7  5  7 149       
PG04   -892.063958  18851.494248  18377.182353   -444.939539  5  6  4 122       
PG05   4442.244681  21443.306530 -14986.546747    -19.375219  7  5  6 119       
PG06  -4285.429982 -15106.879053 -21242.631902    261.478253  7  5  7 159       
PG07 -17789.776794    728.496392 -19766.709625      4.741713  8  7  7 101       
PG08  -9287.524602  11468.472902 -22060.708524      1.878667  7  4  7 137       
PG09  20629.100577  15572.784387   5543.368500     98.519174  6  6  5 118       
PG10    181.705143  24066.638890 -11001.783490    -32.149385  8  7  6 125       
PG11 -23974.088630  -9399.653551   6971.984702    -38.358398  7  6  7 116       
PG12  13599.542701   6732.401202  21863.204758   -166.377548  6  6  4 125       
PG13 -25865.130673   5683.373044  -2250.716461    306.666421  4  6  5 128       
PG14  15491.857319 -13944.758840  16528.246412     -2.932919  6  6  5 106       
PG15  16654.927193   9356.252140 -18468.779152   -314.731282  6  8  7 129       
PG16   1510.206866 -24654.327714  -9366.077850    -27.800316  6  8  6 106       
PG17 -14046.645809  14953.987518  16833.180192    118.894118  7  9  5 155       
PG18  16423.140508 -13521.807125 -15414.223369     40.117009  6  3  4 140       
PG19 -17823.079607  -9623.387978 -17291.653901     -8.162234  5  8  5 130       
PG20 -15657.083181  -1710.940035  21250.614144     63.867621  7  7  3 121       
PG21  15709.879187  -5333.812028 -20547.332021    -32.388880  5  5  6 135       
PG22  12026.450544 -22974.477362  -5394.306235    182.199382  5  8  6 143       
PG23 -25028.248497   -957.685905   9257.519213    382.890983  6  6  7 142       
PG24  20556.697244   9015.920375 -13899.861777    251.669995  6  6  3 120       
PG25 -20769.854416  -4389.960992 -15492.542888     73.537420  8  9  9 152       
PG26  23268.136344  -9583.358572   8654.914215     -7.703278 10  7  9 124       
PG27  20860.183503  16127.808142   4235.322373    114.989483  6  7  6 121       
PG28 -12928.762440  21568.214629  -7582.913784    -23.922880  7  9  5  93       
PG29  26199.206978  -3682.490668   2150.041488     88.077193  8 10  9 149       
PG30  16086.204507  -5784.335529  19927.551995    208.376717 11 10 12 153       
PG31  -1719.919665 -19679.205801  17894.402247    -56.250861  7  6  5 133       
PG32 -11114.592332 -12138.487533  21268.796233    122.222282  7  8  8 132       
*  2010  1  7  4  0  0.00000000
PG01  15860.052200  -5479.865219  20461.206540    -77.371641 10  9  6  92       
PG02  10571.197361  21473.463512  11908.696082    212.608546  7  8  6 140       
PG03  -6689.605487 -14661.862625 -21465.637085    498.465561  7  5  7 150       
PG04  -2570.146035  17381.560102  19647.210434   -444.956308  5  6  4 127       
PG05   3834.881418  22926.394535 -12788.261128    -19.371302  7  6  6 124       
PG06  -1925.012262 -15827.197916 -21054.045412    261.476796  7  4  7 154       
PG07 -19243.081969   -890.367455 -18361.477023      4.740944  8  6  7  92       
PG08 -10964.287840   9581.140540 -22236.820571      1.879329  6  3  7 138       
PG09  20884.080184  16096.623743   2705.903375     98.520225  6  6  5 107       
PG10   -384.127424  25047.629087  -8441.893538    -32.150441  7  7  6 125       
PG11 -24327.883113 -10113.182915   4392.128867    -38.360071  8  5  7 110       
PG12  12906.974687   9094.284713  21434.554479   -166.373246  5  6  5 124       
PG13 -25970.587103   5542.157494    666.970052    306.666136  3  6  5 121       
PG14  17228.717607 -14188.820421  14442.451716     -2.928896  6  7  5 102       
PG15  14577.193808  10068.265883 -19792.405328   -314.729228  6  7  6 138       
PG16   1996.947368 -25478.563777  -6677.682366    -27.804205  6  9  6  90       
PG17 -15848.385798  15198.891355  14873.451206    118.897362  7  9  5 152       
PG18  16089.498953 -11607.444756 -17226.012970     40.119030  6  2  4 150       
PG19 -15815.115888 -10128.232966 -18855.869677     -8.163959  5  8  5 137       
PG20 -15088.537024  -4117.068968  21336.474162     63.867039  6  7  3 133       
PG21  17289.817503  -3578.383705 -19710.150852    -32.391324  6  6  6 137       
PG22  12095.924626 -22124.137422  -8062.542891    182.198526  5  7  6 139       
PG23 -23915.400030  -1432.375740  11761.677795    382.890190  6  6  7 144       
PG24  21361.871545  10289.192391 -11609.779791    251.673530  6  6  4 117       
PG25 -21959.171150  -5631.050635 -13332.213604     73.545201  8  9  9 156       
PG26  24165.230376  -9625.472582   5927.638065     -7.705858 10  8 10 125       
PG27  20908.063074  16437.660157   1375.828640    114.992194  6  6  6 122       
PG28 -12841.813485  20460.219195 -10218.428185    -23.922684  7  8  6 168       
PG29  25869.872005  -3342.497844   4968.649158     88.079691  8 10  8 148       
PG30  15644.164567  -3411.042291  20796.719066    208.378750 10 10 12 150       
PG31   -161.012052 -18271.618026  19435.564959    -56.249742  7  7  4 133       
PG32 -10264.722202 -14277.505931  20359.517178    122.215110  6  8  8 137       
*  2010  1  7  4 15  0.00000000
PG01  15467.680233  -3101.988833  21250.923065    -77.374227 10  9  6 107       
PG02   9296.053982  20674.961815  14124.619215    212.612654  6  8  7 141       
PG03  -4517.696333 -15653.913440 -21297.874418    498.470564  7  4  6 143       
PG04  -4407.255118  15911.031733  20571.343951   -444.973372  4  6  4 126       
PG05   3357.783659  24183.013699 -10369.155484    -19.367872  6  6  6 126       
PG06    359.853062 -16643.567119 -20496.981008    261.475328  7  4  6 155       
PG07 -20649.282001  -2309.882993 -16642.132543      4.740609  7  5  7 108       
PG08 -12741.066296   7797.282564 -22031.164923      1.881197  6  2  7 140       
PG09  20920.593273  16391.501934   -178.489474     98.522122  5  6  5 112       
PG10   -833.236914  25765.291139  -5734.661739    -32.151883  7  8  6 130       
PG11 -24457.393852 -10667.106428   1737.912310    -38.362125  8  5  7 117       
PG12  12357.292540  11421.359300  20639.643080   -166.368671  4  7  5 122       
PG13 -25764.106557   5322.683406   3573.168273    306.666302  3  6  4 127       
PG14  18709.666349 -14461.601067  12108.800720     -2.924834  6  7  5 115       
PG15  12414.483582  10928.885600 -20775.567212   -314.727455  6  7  6 140       
PG16   2367.380187 -26022.410708  -3872.450245    -27.807954  6  9  6  96       
PG17 -17410.297746  15467.231304  12656.655488    118.900281  7  9  5 150       
PG18  15803.348033  -9495.701799 -18731.619758     40.121767  6  4  5 145       
PG19 -13680.061101 -10775.466498 -20097.522541     -8.166027  6  8  6 133       
PG20 -14638.975908  -6536.053675  21050.814252     63.866342  5  7  2 121       
PG21  18863.183225  -1983.206377 -18530.006277    -32.393183  5  6  6 134       
PG22  12137.263045 -20991.227553 -10590.621754    182.197674  5  6  5 138       
PG23 -22571.119877  -2050.385114  14066.325692    382.889477  6  6  6 144       
PG24  22036.169869  11328.966700  -9116.252014    251.675880  6  6  4 129       
PG25 -23001.771584  -6649.758435 -10935.549818     73.552862  7  8  8 156       
PG26  24751.486331  -9642.774370   3099.626795     -7.708566 10  7 10 126       
PG27  20716.020655  16546.659134  -1507.088671    114.995505  6  6  5 127       
PG28 -12745.044816  19062.125232 -12671.316122    -23.922251  7  8  7 141       
PG29  25257.314486  -2897.331406   7701.686395     88.082251  7 10  8 152       
PG30  15308.514719   -940.425869  21295.091636    208.381080 10 10 12 156       
PG31   1585.958348 -16849.185327  20646.628768    -56.248766  7  7  4 135       
PG32  -9565.147971 -16343.050857  19113.055902    122.208041  6  8  8 130       
EOF
